<xml>
<item>
<COMMENT>GENERATED VIA SPACETRACK.ORG API</COMMENT>
<ORIGINATOR>18 SPCS</ORIGINATOR>
<NORAD_CAT_ID>56489</NORAD_CAT_ID>
<OBJECT_NAME>STARLINK-5923</OBJECT_NAME>
<OBJECT_TYPE>PAYLOAD</OBJECT_TYPE>
<CLASSIFICATION_TYPE>U</CLASSIFICATION_TYPE>
<INTLDES>23064AT</INTLDES>
<EPOCH>2023-10-19 22:28:01</EPOCH>
<EPOCH_MICROSECONDS>650144</EPOCH_MICROSECONDS>
<MEAN_MOTION>15.6993599</MEAN_MOTION>
<ECCENTRICITY>0.0003538</ECCENTRICITY>
<INCLINATION>70</INCLINATION>
<RA_OF_ASC_NODE>149.2231</RA_OF_ASC_NODE>
<ARG_OF_PERICENTER>270.7003</ARG_OF_PERICENTER>
<MEAN_ANOMALY>89.3787</MEAN_ANOMALY>
<EPHEMERIS_TYPE>0</EPHEMERIS_TYPE>
<ELEMENT_SET_NO>999</ELEMENT_SET_NO>
<REV_AT_EPOCH>2583</REV_AT_EPOCH>
<BSTAR>0.00008134</BSTAR>
<MEAN_MOTION_DOT>0.00009584</MEAN_MOTION_DOT>
<MEAN_MOTION_DDOT>0</MEAN_MOTION_DDOT>
<FILE>4043968</FILE>
<TLE_LINE0>0 STARLINK-5923</TLE_LINE0>
<TLE_LINE1>1 56489U 23064AT 23292.93613021 .00009584 00000-0 81340-4 0 9996</TLE_LINE1>
<TLE_LINE2>2 56489 70.0000 149.2231 0003538 270.7003 89.3787 15.69935990 25837</TLE_LINE2>
<OBJECT_ID>2023-064AT</OBJECT_ID>
<OBJECT_NUMBER>56489</OBJECT_NUMBER>
<SEMIMAJOR_AXIS>6737.217</SEMIMAJOR_AXIS>
<PERIOD>91.723</PERIOD>
<APOGEE>361.466</APOGEE>
<PERIGEE>356.699</PERIGEE>
<DECAYED>0</DECAYED>
</item>
<item>
<COMMENT>GENERATED VIA SPACETRACK.ORG API</COMMENT>
<ORIGINATOR>18 SPCS</ORIGINATOR>
<NORAD_CAT_ID>56790</NORAD_CAT_ID>
<OBJECT_NAME>STARLINK-6345</OBJECT_NAME>
<OBJECT_TYPE>PAYLOAD</OBJECT_TYPE>
<CLASSIFICATION_TYPE>U</CLASSIFICATION_TYPE>
<INTLDES>23078Z</INTLDES>
<EPOCH>2023-10-20 00:00:00</EPOCH>
<EPOCH_MICROSECONDS>999648</EPOCH_MICROSECONDS>
<MEAN_MOTION>15.69903183</MEAN_MOTION>
<ECCENTRICITY>0.00033</ECCENTRICITY>
<INCLINATION>70</INCLINATION>
<RA_OF_ASC_NODE>14.8287</RA_OF_ASC_NODE>
<ARG_OF_PERICENTER>267.7495</ARG_OF_PERICENTER>
<MEAN_ANOMALY>38.3844</MEAN_ANOMALY>
<EPHEMERIS_TYPE>0</EPHEMERIS_TYPE>
<ELEMENT_SET_NO>999</ELEMENT_SET_NO>
<REV_AT_EPOCH>2255</REV_AT_EPOCH>
<BSTAR>0.00017322</BSTAR>
<MEAN_MOTION_DOT>0.00020648</MEAN_MOTION_DOT>
<MEAN_MOTION_DDOT>0</MEAN_MOTION_DDOT>
<FILE>4043058</FILE>
<TLE_LINE0>0 STARLINK-6345</TLE_LINE0>
<TLE_LINE1>1 56790U 23078Z 23293.00001157 .00020648 00000-0 17322-3 0 9998</TLE_LINE1>
<TLE_LINE2>2 56790 70.0000 14.8287 0003300 267.7495 38.3844 15.69903183 22551</TLE_LINE2>
<OBJECT_ID>2023-078Z</OBJECT_ID>
<OBJECT_NUMBER>56790</OBJECT_NUMBER>
<SEMIMAJOR_AXIS>6737.311</SEMIMAJOR_AXIS>
<PERIOD>91.725</PERIOD>
<APOGEE>361.399</APOGEE>
<PERIGEE>356.953</PERIGEE>
<DECAYED>0</DECAYED>
</item>
<item>
<COMMENT>GENERATED VIA SPACETRACK.ORG API</COMMENT>
<ORIGINATOR>18 SPCS</ORIGINATOR>
<NORAD_CAT_ID>56486</NORAD_CAT_ID>
<OBJECT_NAME>STARLINK-6201</OBJECT_NAME>
<OBJECT_TYPE>PAYLOAD</OBJECT_TYPE>
<CLASSIFICATION_TYPE>U</CLASSIFICATION_TYPE>
<INTLDES>23064AQ</INTLDES>
<EPOCH>2023-10-20 01:54:02</EPOCH>
<EPOCH_MICROSECONDS>745216</EPOCH_MICROSECONDS>
<MEAN_MOTION>14.98336397</MEAN_MOTION>
<ECCENTRICITY>0.0002928</ECCENTRICITY>
<INCLINATION>70</INCLINATION>
<RA_OF_ASC_NODE>161.9664</RA_OF_ASC_NODE>
<ARG_OF_PERICENTER>275.9458</ARG_OF_PERICENTER>
<MEAN_ANOMALY>84.1367</MEAN_ANOMALY>
<EPHEMERIS_TYPE>0</EPHEMERIS_TYPE>
<ELEMENT_SET_NO>999</ELEMENT_SET_NO>
<REV_AT_EPOCH>2554</REV_AT_EPOCH>
<BSTAR>0.000052857</BSTAR>
<MEAN_MOTION_DOT>0.00000538</MEAN_MOTION_DOT>
<MEAN_MOTION_DDOT>0</MEAN_MOTION_DDOT>
<FILE>4043445</FILE>
<TLE_LINE0>0 STARLINK-6201</TLE_LINE0>
<TLE_LINE1>1 56486U 23064AQ 23293.07919844 .00000538 00000-0 52857-4 0 9992</TLE_LINE1>
<TLE_LINE2>2 56486 70.0000 161.9664 0002928 275.9458 84.1367 14.98336397 25540</TLE_LINE2>
<OBJECT_ID>2023-064AQ</OBJECT_ID>
<OBJECT_NUMBER>56486</OBJECT_NUMBER>
<SEMIMAJOR_AXIS>6950.173</SEMIMAJOR_AXIS>
<PERIOD>96.107</PERIOD>
<APOGEE>574.073</APOGEE>
<PERIGEE>570.003</PERIGEE>
<DECAYED>0</DECAYED>
</item>
<item>
<COMMENT>GENERATED VIA SPACETRACK.ORG API</COMMENT>
<ORIGINATOR>18 SPCS</ORIGINATOR>
<NORAD_CAT_ID>56486</NORAD_CAT_ID>
<OBJECT_NAME>STARLINK-6201</OBJECT_NAME>
<OBJECT_TYPE>PAYLOAD</OBJECT_TYPE>
<CLASSIFICATION_TYPE>U</CLASSIFICATION_TYPE>
<INTLDES>23064AQ</INTLDES>
<EPOCH>2023-10-20 01:54:02</EPOCH>
<EPOCH_MICROSECONDS>745216</EPOCH_MICROSECONDS>
<MEAN_MOTION>14.98336397</MEAN_MOTION>
<ECCENTRICITY>0.0002928</ECCENTRICITY>
<INCLINATION>70</INCLINATION>
<RA_OF_ASC_NODE>161.9664</RA_OF_ASC_NODE>
<ARG_OF_PERICENTER>275.9458</ARG_OF_PERICENTER>
<MEAN_ANOMALY>84.1367</MEAN_ANOMALY>
<EPHEMERIS_TYPE>0</EPHEMERIS_TYPE>
<ELEMENT_SET_NO>999</ELEMENT_SET_NO>
<REV_AT_EPOCH>2518</REV_AT_EPOCH>
<BSTAR>0.000052857</BSTAR>
<MEAN_MOTION_DOT>0.00000538</MEAN_MOTION_DOT>
<MEAN_MOTION_DDOT>0</MEAN_MOTION_DDOT>
<FILE>4044291</FILE>
<TLE_LINE0>0 STARLINK-6201</TLE_LINE0>
<TLE_LINE1>1 56486U 23064AQ 23293.07919844 .00000538 00000-0 52857-4 0 9992</TLE_LINE1>
<TLE_LINE2>2 56486 70.0000 161.9664 0002928 275.9458 84.1367 14.98336397 25180</TLE_LINE2>
<OBJECT_ID>2023-064AQ</OBJECT_ID>
<OBJECT_NUMBER>56486</OBJECT_NUMBER>
<SEMIMAJOR_AXIS>6950.173</SEMIMAJOR_AXIS>
<PERIOD>96.107</PERIOD>
<APOGEE>574.073</APOGEE>
<PERIGEE>570.003</PERIGEE>
<DECAYED>0</DECAYED>
</item>
<item>
<COMMENT>GENERATED VIA SPACETRACK.ORG API</COMMENT>
<ORIGINATOR>18 SPCS</ORIGINATOR>
<NORAD_CAT_ID>56477</NORAD_CAT_ID>
<OBJECT_NAME>STARLINK-5534</OBJECT_NAME>
<OBJECT_TYPE>PAYLOAD</OBJECT_TYPE>
<CLASSIFICATION_TYPE>U</CLASSIFICATION_TYPE>
<INTLDES>23064AF</INTLDES>
<EPOCH>2023-10-20 02:12:04</EPOCH>
<EPOCH_MICROSECONDS>809312</EPOCH_MICROSECONDS>
<MEAN_MOTION>14.98334914</MEAN_MOTION>
<ECCENTRICITY>0.0002796</ECCENTRICITY>
<INCLINATION>70</INCLINATION>
<RA_OF_ASC_NODE>162.0109</RA_OF_ASC_NODE>
<ARG_OF_PERICENTER>275.1497</ARG_OF_PERICENTER>
<MEAN_ANOMALY>84.9342</MEAN_ANOMALY>
<EPHEMERIS_TYPE>0</EPHEMERIS_TYPE>
<ELEMENT_SET_NO>999</ELEMENT_SET_NO>
<REV_AT_EPOCH>2554</REV_AT_EPOCH>
<BSTAR>0.000051187</BSTAR>
<MEAN_MOTION_DOT>0.00000518</MEAN_MOTION_DOT>
<MEAN_MOTION_DDOT>0</MEAN_MOTION_DDOT>
<FILE>4043450</FILE>
<TLE_LINE0>0 STARLINK-5534</TLE_LINE0>
<TLE_LINE1>1 56477U 23064AF 23293.09172233 .00000518 00000-0 51187-4 0 9990</TLE_LINE1>
<TLE_LINE2>2 56477 70.0000 162.0109 0002796 275.1497 84.9342 14.98334914 25548</TLE_LINE2>
<OBJECT_ID>2023-064AF</OBJECT_ID>
<OBJECT_NUMBER>56477</OBJECT_NUMBER>
<SEMIMAJOR_AXIS>6950.178</SEMIMAJOR_AXIS>
<PERIOD>96.107</PERIOD>
<APOGEE>573.986</APOGEE>
<PERIGEE>570.099</PERIGEE>
<DECAYED>0</DECAYED>
</item>
<item>
<COMMENT>GENERATED VIA SPACETRACK.ORG API</COMMENT>
<ORIGINATOR>18 SPCS</ORIGINATOR>
<NORAD_CAT_ID>56477</NORAD_CAT_ID>
<OBJECT_NAME>STARLINK-5534</OBJECT_NAME>
<OBJECT_TYPE>PAYLOAD</OBJECT_TYPE>
<CLASSIFICATION_TYPE>U</CLASSIFICATION_TYPE>
<INTLDES>23064AF</INTLDES>
<EPOCH>2023-10-20 02:12:04</EPOCH>
<EPOCH_MICROSECONDS>809312</EPOCH_MICROSECONDS>
<MEAN_MOTION>14.98334914</MEAN_MOTION>
<ECCENTRICITY>0.0002796</ECCENTRICITY>
<INCLINATION>70</INCLINATION>
<RA_OF_ASC_NODE>162.0109</RA_OF_ASC_NODE>
<ARG_OF_PERICENTER>275.1497</ARG_OF_PERICENTER>
<MEAN_ANOMALY>84.9342</MEAN_ANOMALY>
<EPHEMERIS_TYPE>0</EPHEMERIS_TYPE>
<ELEMENT_SET_NO>999</ELEMENT_SET_NO>
<REV_AT_EPOCH>2518</REV_AT_EPOCH>
<BSTAR>0.000051187</BSTAR>
<MEAN_MOTION_DOT>0.00000518</MEAN_MOTION_DOT>
<MEAN_MOTION_DDOT>0</MEAN_MOTION_DDOT>
<FILE>4044291</FILE>
<TLE_LINE0>0 STARLINK-5534</TLE_LINE0>
<TLE_LINE1>1 56477U 23064AF 23293.09172233 .00000518 00000-0 51187-4 0 9990</TLE_LINE1>
<TLE_LINE2>2 56477 70.0000 162.0109 0002796 275.1497 84.9342 14.98334914 25188</TLE_LINE2>
<OBJECT_ID>2023-064AF</OBJECT_ID>
<OBJECT_NUMBER>56477</OBJECT_NUMBER>
<SEMIMAJOR_AXIS>6950.178</SEMIMAJOR_AXIS>
<PERIOD>96.107</PERIOD>
<APOGEE>573.986</APOGEE>
<PERIGEE>570.099</PERIGEE>
<DECAYED>0</DECAYED>
</item>
<item>
<COMMENT>GENERATED VIA SPACETRACK.ORG API</COMMENT>
<ORIGINATOR>18 SPCS</ORIGINATOR>
<NORAD_CAT_ID>55764</NORAD_CAT_ID>
<OBJECT_NAME>STARLINK-5499</OBJECT_NAME>
<OBJECT_TYPE>PAYLOAD</OBJECT_TYPE>
<CLASSIFICATION_TYPE>U</CLASSIFICATION_TYPE>
<INTLDES>23028Z</INTLDES>
<EPOCH>2023-10-20 07:08:11</EPOCH>
<EPOCH_MICROSECONDS>466816</EPOCH_MICROSECONDS>
<MEAN_MOTION>14.98337935</MEAN_MOTION>
<ECCENTRICITY>0.0002906</ECCENTRICITY>
<INCLINATION>70</INCLINATION>
<RA_OF_ASC_NODE>261.6751</RA_OF_ASC_NODE>
<ARG_OF_PERICENTER>271.8723</ARG_OF_PERICENTER>
<MEAN_ANOMALY>88.2103</MEAN_ANOMALY>
<EPHEMERIS_TYPE>0</EPHEMERIS_TYPE>
<ELEMENT_SET_NO>999</ELEMENT_SET_NO>
<REV_AT_EPOCH>3600</REV_AT_EPOCH>
<BSTAR>0.00015333</BSTAR>
<MEAN_MOTION_DOT>0.00001737</MEAN_MOTION_DOT>
<MEAN_MOTION_DDOT>0</MEAN_MOTION_DDOT>
<FILE>4044291</FILE>
<TLE_LINE0>0 STARLINK-5499</TLE_LINE0>
<TLE_LINE1>1 55764U 23028Z 23293.29735494 .00001737 00000-0 15333-3 0 9990</TLE_LINE1>
<TLE_LINE2>2 55764 70.0000 261.6751 0002906 271.8723 88.2103 14.98337935 36004</TLE_LINE2>
<OBJECT_ID>2023-028Z</OBJECT_ID>
<OBJECT_NUMBER>55764</OBJECT_NUMBER>
<SEMIMAJOR_AXIS>6950.168</SEMIMAJOR_AXIS>
<PERIOD>96.106</PERIOD>
<APOGEE>574.053</APOGEE>
<PERIGEE>570.014</PERIGEE>
<DECAYED>0</DECAYED>
</item>

</xml>
